CZ-4B R/B               
1 28059U 03049C   16221.21944727 -.00000024  00000-0  61081-5 0  9996
2 28059  98.6040  94.1249 0051229 120.6523 348.4684 14.52450989678241
CZ-2C R/B               
1 28222U 04012C   16220.53181965  .00000858  00000-0  57459-4 0  9997
2 28222  97.4787 177.9767 0049064 179.4132 315.9265 15.08604507673311
SL-16 R/B               
1 28353U 04021B   16220.87189681 -.00000188  00000-0 -73689-4 0  9993
2 28353  71.0008  15.5292 0007116 302.1306  57.9125 14.14184168627869
CZ-2C R/B               
1 28480U 04046B   16220.23320811  .00000002  00000-0  15882-4 0  9997
2 28480  98.1870 330.7763 0143256  71.3182 346.4562 14.25602563609503
ARIANE 5 R/B            
1 28499U 04049H   16220.29564083  .00000115  00000-0  21670-4 0  9994
2 28499  98.1072 295.0338 0093422 148.0976 253.0741 14.79716895627572
CZ-2D R/B               
1 28738U 05024B   16221.14713843  .00000562  00000-0  37816-4 0  9994
2 28738  97.5381 257.4812 0012463   8.9867 351.1583 15.10651963608542
SUZAKU (ASTRO-EII)      
1 28773U 05025A   16220.20100566  .00001227  00000-0  59761-4 0  9994
2 28773  31.3820 171.2930 0004628  79.0152 281.1015 15.14916630609686
ALOS (DAICHI)           
1 28931U 06002A   16220.88092965  .00000107  00000-0  29985-4 0  9994
2 28931  97.8799 257.3126 0000968 128.6470 231.4823 14.62221058561670
H-2A R/B                
1 28932U 06002B   16220.85481659  .00000228  00000-0  28011-4 0  9997
2 28932  98.2096 125.2105 0089284 257.8378 150.0568 14.90974788571114
AKARI (ASTRO-F)         
1 28939U 06005A   16220.78670508  .00005176  00000-0  17028-3 0  9994
2 28939  98.2472  22.6443 0113057 190.7191 169.1635 15.26039069565278
RESURS-DK 1             
1 29228U 06021A   16221.18392892  .00000165  00000-0  19977-4 0  9995
2 29228  69.9353 174.3090 0001723 121.4935 238.6394 15.01953369561102
GENESIS 1               
1 29252U 06029A   16220.54438787  .00000432  00000-0  32689-4 0  9995
2 29252  64.5034 229.4005 0025657 223.7661 278.7640 15.16137610554276
CZ-4B R/B               
1 29507U 06046C   16220.53345976  .00000153  00000-0  17235-4 0  9993
2 29507  97.7827 221.8359 0042211 237.5530 122.1608 14.99779389534020
CZ-2C R/B               
1 31114U 07010B   16220.82214165  .00000009  00000-0  23408-4 0  9998
2 31114  98.4102 133.2425 0060724  45.8767 314.7383 14.19211864483070
COSMO-SKYMED 1          
1 31598U 07023A   16221.12814387 -.00000271  00000-0 -27451-4 0  9999
2 31598  97.8756  43.6932 0001473  80.9363 279.2015 14.82158531496071
GENESIS 2               
1 31789U 07028A   16220.54304899  .00000690  00000-0  46035-4 0  9995
2 31789  64.5038 266.2604 0052489 259.7039  99.8162 15.15390055501369
COSMOS 2428             
1 31792U 07029A   16220.92920723 -.00000328  00000-0 -15207-3 0  9998
2 31792  70.9341 349.7013 0009227  15.9114 344.2295 14.12338813469840
SL-16 R/B               
1 31793U 07029B   16219.87424745  .00000286  00000-0  17458-3 0  9995
2 31793  70.9771 329.3708 0002385 265.2102 233.6559 14.14362701470232
KORONAS-FOTON           
1 33504U 09003A   16220.89094551  .00000338  00000-0  16554-4 0  9998
2 33504  82.4436 184.2056 0021243 110.6291 249.7221 15.14397551414054
TIANGONG 1              
1 37820U 11053A   16221.23756538  .00013068  00000-0  13524-3 0  9997
2 37820  42.7642 295.5854 0014105  37.5730  14.6082 15.64497328278738
CZ-3B R/B               
1 38253U 12018D   16221.13325745  .00195074  54910-6  40262-3 0  9993
2 38253  54.9639 142.2027 3403713 248.3722  72.4493  8.80115121 95512
H-2A R/B                
1 38341U 12025E   16220.19354014  .00000289  00000-0  41784-4 0  9994
2 38341  98.4755 273.0006 0057440  87.8520 272.9268 14.83366727228327
CUSAT 2 & FALCON 9 R/B  
1 39271U 13055G   16220.38319930  .00007428  00000-0  19572-3 0  9991
2 39271  80.9721 327.8759 0653535  47.3858 318.0562 14.32389411147625
ALOS-2                  
1 39766U 14029A   16221.17780377 -.00000328  00000-0 -37105-4 0  9994
2 39766  97.9222 317.0046 0001564  88.4963 271.6439 14.79468868119328
ASTRO-H (HITOMI)        
1 41337U 16012A   16219.65834019  .00000392  00000-0  25297-4 0  9996
2 41337  31.0064 311.6049 0012467 175.1425 184.9332 14.98102599 25716
AL-1 (AOLONG 1)         
1 41629U 16042F   16219.83481253  .00339556  71581-5  17807-3 0  9992
2 41629  40.7994 134.2275 0082285 152.2621 274.2527 16.11363694  6796
